IONOSFERA-M 2           
1 61736U 24199B   26201.91405674  .00000013  00000+0  25231-4 0  9995
2 61736  98.7126  74.6335 0000719 130.6754 229.4486 14.22763235135626
PRSC-EO1                
1 62725U 25012A   26201.94925269  .00004719  00000+0  23753-3 0  9992
2 62725  97.4208 273.7463 0007159 130.4584 229.7275 15.17663483 83316
BIOMASS                 
1 63772U 25090A   26201.51370636  .00000371  00000+0  73818-4 0  9994
2 63772  98.0754  28.3438 0001442  90.1809 269.9561 14.67536383 65573
GOSAT-GW (IBUKI GW)     
1 64694U 25141A   26201.93997132  .00000006  00000+0  95019-5 0  9990
2 64694  98.0564 138.7087 0001425  85.8658 274.2710 14.67554607 56794
IONOSFERA-M 3           
1 64876U 25155A   26201.89157564  .00000027  00000+0  32038-4 0  9993
2 64876  98.6045 162.9518 0002421 103.7724 256.3723 14.21491480 51198
IONOSFERA-M 4           
1 64877U 25155B   26201.92635891  .00000033  00000+0  34804-4 0  9992
2 64877  98.6044 162.9028 0001886  93.6080 266.5313 14.21493922 51191
MICROCARB               
1 64899U 25156A   26201.78146089  .00000279  00000+0  51268-4 0  9992
2 64899  98.0070 278.4049 0018040 153.4530 206.7605 14.72888820 52911
CO3D 3                  
1 64900U 25156B   26201.88889960  .00002858  00000+0  13509-3 0  9998
2 64900  97.4331 280.0977 0001727  90.4098 269.7335 15.20198684 54657
CO3D 4                  
1 64901U 25156C   26201.88905332  .00002119  00000+0  10101-3 0  9996
2 64901  97.4337 280.0977 0001938 142.0996 218.0376 15.20194972 54657
CO3D 2                  
1 64902U 25156D   26201.92153115  .00002627  00000+0  12444-3 0  9992
2 64902  97.4332 280.0285 0001185  92.0919 268.0452 15.20204133 54659
CO3D 1                  
1 64903U 25156E   26201.92168437  .00002877  00000+0  13594-3 0  9990
2 64903  97.4332 280.0288 0001336 102.2010 257.9375 15.20206651 54655
PRSC-S1                 
1 65055U 25164A   26201.94031550  .00003141  00000+0  21966-3 0  9992
2 65055  41.1302  97.6789 0007498 232.4302 127.5831 15.06666299 53526
SENTINEL-6B             
1 66514U 25264A   26201.89270967 -.00000060  00000+0  45001-5 0  9991
2 66514  66.0410  65.1724 0007838 268.4908  91.5209 12.80930278 31481
CAS500-3                
1 66655U 25274F   26201.76273841  .00000640  00000+0  74906-4 0  9996
2 66655  97.7433 129.0502 0005811  22.2923 337.8545 14.88391224 35147
CSG-3                   
1 67304U 26001A   26201.41422676  .00000150  00000+0  25423-4 0  9997
2 67304  97.8898  24.5366 0001469  93.0499 267.0882 14.82165425 29384
PRSC-E03                
1 68835U 26092A   26201.45659774  .00001074  00000+0  77985-4 0  9998
2 68835  38.0004 253.4742 0005006 283.2867  76.7337 15.06821808 12972
CAS500-2                
1 69013U 26100AK  26201.71241324  .00003323  00000+0  15845-3 0  9999
2 69013  97.3850  98.9199 0008126 230.8249 129.2264 15.19760392 11903
